[{"OBJECT_NAME":"STARLINK-4643","OBJECT_ID":"2022-177E","EPOCH":"2026-03-09T05:27:46.379232","MEAN_MOTION":15.02535728,"ECCENTRICITY":0.00010578,"INCLINATION":43.0007,"RA_OF_ASC_NODE":136.0298,"ARG_OF_PERICENTER":272.5353,"MEAN_ANOMALY":87.5368,"EPHEMERIS_TYPE":0,"CLASSIFICATION_TYPE":"U","NORAD_CAT_ID":54824,"ELEMENT_SET_NO":999,"REV_AT_EPOCH":17688,"BSTAR":8.166246e-6,"MEAN_MOTION_DOT":-9.3e-7,"MEAN_MOTION_DDOT":0},{"OBJECT_NAME":"COSMOS 2251 DEB","OBJECT_ID":"1993-036GR","EPOCH":"2026-03-09T03:51:30.155616","MEAN_MOTION":15.03624382,"ECCENTRICITY":0.001162,"INCLINATION":74.0519,"RA_OF_ASC_NODE":328.1155,"ARG_OF_PERICENTER":228.8449,"MEAN_ANOMALY":281.5146,"EPHEMERIS_TYPE":0,"CLASSIFICATION_TYPE":"U","NORAD_CAT_ID":34006,"ELEMENT_SET_NO":999,"REV_AT_EPOCH":89963,"BSTAR":0.0037151817,"MEAN_MOTION_DOT":0.00051242,"MEAN_MOTION_DDOT":0}]
